FENGYUN 1C DEB          
1 30397U 99025ADL 17346.50805479  .00000367  00000-0  29328-3 0  9999
2 30397  98.3784 357.8816 0163146 291.9069 234.5868 13.90515471551157
